1 34525U 97051HS  26115.11770020  .00000740  00000+0  21405-3 0  9999
2 34525  86.3755 349.9190 0005614  33.5913 118.4320 14.43277812900119
